SENTINEL-3B             
1 43437U 18039A   25124.19207806  .00000238  00000+0  11623-3 0  9997
2 43437  98.6316 192.5111 0001477  79.1192 281.0155 14.26731122365807
GAOFEN-5 01             
1 43461U 18043A   25124.15721137  .00000769  00000+0  16986-3 0  9999
2 43461  98.4029  83.7281 0000436 269.3971  90.7179 14.60124592371997
GAOFEN-6                
1 43484U 18048A   25124.17722162  .00001420  00000+0  21019-3 0  9998
2 43484  97.8244 195.5375 0013926  58.3303 301.9263 14.76610529373038
GAOFEN-11 01            
1 43585U 18063A   25124.16517140  .00015628  00000+0  35815-3 0  9998
2 43585  97.1816 189.6873 0007183  48.5663 311.6201 15.42816495377042
ICESAT-2                
1 43613U 18070A   25123.91210880  .00016799  00000+0  61036-3 0  9995
2 43613  91.9916 180.8861 0004244  17.6061 342.5335 15.28228420369952
HYSIS                   
1 43719U 18096A   25124.14077829  .00002174  74880-9  29727-3 0  9990
2 43719  98.0322 187.8194 0001307  79.7091 280.4267 14.78628867347013
KAZSTSAT                
1 43783U 18099AB  25124.10270616  .00001599  00000+0  13794-3 0  9999
2 43783  97.4774 168.6042 0007012 349.5569  10.5508 14.98602491350015
SAUDISAT 5A             
1 43831U 18102A   25124.20007176  .00007978  00000+0  34472-3 0  9991
2 43831  97.3598 188.7947 0012316 132.9724 227.2548 15.22675770353336
SAUDISAT 5B             
1 43833U 18102C   25124.18494082  .00007675  00000+0  32725-3 0  9999
2 43833  97.3675 191.1310 0012973 135.9183 224.3091 15.23135871353433
GAOFEN-10R              
1 44622U 19066A   25124.16445145  .00002542  00000+0  32286-3 0  9990
2 44622  98.0020  71.2384 0006745  42.8670 317.3068 14.82550367301769
CARTOSAT-3              
1 44804U 19081A   25124.20548935  .00006353  00000+0  30439-3 0  9997
2 44804  97.4831 186.1559 0015239 139.8301 220.4063 15.19179289301322
GAOFEN-12 01            
1 44819U 19082A   25124.18044783  .00000829  00000+0  11534-3 0  9990
2 44819  97.8151 136.2629 0001174 236.9729 123.1371 14.80357918293579
CSG-1                   
1 44873U 19092A   25124.14014591  .00001017  00000+0  13429-3 0  9996
2 44873  97.8877 308.6789 0001501  84.3498 275.7887 14.82160978290885
NEMO-HD                 
1 46277U 20061F   25124.17862525  .00011851  00000+0  34647-3 0  9997
2 46277  97.2469 186.5567 0002917  92.5663 267.5915 15.35423982259040
