[
  {
    "OBJECT_NAME": "SENTINEL-3B",
    "OBJECT_ID": "2018-039A",
    "EPOCH": "2025-05-04T04:36:35.544384",
    "MEAN_MOTION": 14.26731122,
    "ECCENTRICITY": 0.0001477,
    "INCLINATION": 98.6316,
    "RA_OF_ASC_NODE": 192.5111,
    "ARG_OF_PERICENTER": 79.1192,
    "MEAN_ANOMALY": 281.0155,
    "EPHEMERIS_TYPE": 0,
    "CLASSIFICATION_TYPE": "U",
    "NORAD_CAT_ID": 43437,
    "ELEMENT_SET_NO": 999,
    "REV_AT_EPOCH": 36580,
    "BSTAR": 0.00011623,
    "MEAN_MOTION_DOT": 2.38e-06,
    "MEAN_MOTION_DDOT": 0
  },
  {
    "OBJECT_NAME": "GAOFEN-5 01",
    "OBJECT_ID": "2018-043A",
    "EPOCH": "2025-05-04T03:46:23.062368",
    "MEAN_MOTION": 14.60124592,
    "ECCENTRICITY": 4.36e-05,
    "INCLINATION": 98.4029,
    "RA_OF_ASC_NODE": 83.7281,
    "ARG_OF_PERICENTER": 269.3971,
    "MEAN_ANOMALY": 90.7179,
    "EPHEMERIS_TYPE": 0,
    "CLASSIFICATION_TYPE": "U",
    "NORAD_CAT_ID": 43461,
    "ELEMENT_SET_NO": 999,
    "REV_AT_EPOCH": 37199,
    "BSTAR": 0.00016986,
    "MEAN_MOTION_DOT": 7.69e-06,
    "MEAN_MOTION_DDOT": 0
  },
  {
    "OBJECT_NAME": "GAOFEN-6",
    "OBJECT_ID": "2018-048A",
    "EPOCH": "2025-05-04T04:15:11.947968",
    "MEAN_MOTION": 14.76610529,
    "ECCENTRICITY": 0.0013926,
    "INCLINATION": 97.8244,
    "RA_OF_ASC_NODE": 195.5375,
    "ARG_OF_PERICENTER": 58.3303,
    "MEAN_ANOMALY": 301.9263,
    "EPHEMERIS_TYPE": 0,
    "CLASSIFICATION_TYPE": "U",
    "NORAD_CAT_ID": 43484,
    "ELEMENT_SET_NO": 999,
    "REV_AT_EPOCH": 37303,
    "BSTAR": 0.00021019,
    "MEAN_MOTION_DOT": 1.42e-05,
    "MEAN_MOTION_DDOT": 0
  },
  {
    "OBJECT_NAME": "GAOFEN-11 01",
    "OBJECT_ID": "2018-063A",
    "EPOCH": "2025-05-04T03:57:50.808960",
    "MEAN_MOTION": 15.42816495,
    "ECCENTRICITY": 0.0007183,
    "INCLINATION": 97.1816,
    "RA_OF_ASC_NODE": 189.6873,
    "ARG_OF_PERICENTER": 48.5663,
    "MEAN_ANOMALY": 311.6201,
    "EPHEMERIS_TYPE": 0,
    "CLASSIFICATION_TYPE": "U",
    "NORAD_CAT_ID": 43585,
    "ELEMENT_SET_NO": 999,
    "REV_AT_EPOCH": 37704,
    "BSTAR": 0.00035815,
    "MEAN_MOTION_DOT": 0.00015628,
    "MEAN_MOTION_DDOT": 0
  },
  {
    "OBJECT_NAME": "ICESAT-2",
    "OBJECT_ID": "2018-070A",
    "EPOCH": "2025-05-03T21:53:26.200320",
    "MEAN_MOTION": 15.2822842,
    "ECCENTRICITY": 0.0004244,
    "INCLINATION": 91.9916,
    "RA_OF_ASC_NODE": 180.8861,
    "ARG_OF_PERICENTER": 17.6061,
    "MEAN_ANOMALY": 342.5335,
    "EPHEMERIS_TYPE": 0,
    "CLASSIFICATION_TYPE": "U",
    "NORAD_CAT_ID": 43613,
    "ELEMENT_SET_NO": 999,
    "REV_AT_EPOCH": 36995,
    "BSTAR": 0.00061036,
    "MEAN_MOTION_DOT": 0.00016799,
    "MEAN_MOTION_DDOT": 0
  },
  {
    "OBJECT_NAME": "HYSIS",
    "OBJECT_ID": "2018-096A",
    "EPOCH": "2025-05-04T03:22:43.244256",
    "MEAN_MOTION": 14.78628867,
    "ECCENTRICITY": 0.0001307,
    "INCLINATION": 98.0322,
    "RA_OF_ASC_NODE": 187.8194,
    "ARG_OF_PERICENTER": 79.7091,
    "MEAN_ANOMALY": 280.4267,
    "EPHEMERIS_TYPE": 0,
    "CLASSIFICATION_TYPE": "U",
    "NORAD_CAT_ID": 43719,
    "ELEMENT_SET_NO": 999,
    "REV_AT_EPOCH": 34701,
    "BSTAR": 0.00029727,
    "MEAN_MOTION_DOT": 2.174e-05,
    "MEAN_MOTION_DDOT": 7.488e-10
  },
  {
    "OBJECT_NAME": "KAZSTSAT",
    "OBJECT_ID": "2018-099AB",
    "EPOCH": "2025-05-04T02:27:53.812224",
    "MEAN_MOTION": 14.98602491,
    "ECCENTRICITY": 0.0007012,
    "INCLINATION": 97.4774,
    "RA_OF_ASC_NODE": 168.6042,
    "ARG_OF_PERICENTER": 349.5569,
    "MEAN_ANOMALY": 10.5508,
    "EPHEMERIS_TYPE": 0,
    "CLASSIFICATION_TYPE": "U",
    "NORAD_CAT_ID": 43783,
    "ELEMENT_SET_NO": 999,
    "REV_AT_EPOCH": 35001,
    "BSTAR": 0.00013794,
    "MEAN_MOTION_DOT": 1.599e-05,
    "MEAN_MOTION_DDOT": 0
  },
  {
    "OBJECT_NAME": "SAUDISAT 5A",
    "OBJECT_ID": "2018-102A",
    "EPOCH": "2025-05-04T04:48:06.200064",
    "MEAN_MOTION": 15.2267577,
    "ECCENTRICITY": 0.0012316,
    "INCLINATION": 97.3598,
    "RA_OF_ASC_NODE": 188.7947,
    "ARG_OF_PERICENTER": 132.9724,
    "MEAN_ANOMALY": 227.2548,
    "EPHEMERIS_TYPE": 0,
    "CLASSIFICATION_TYPE": "U",
    "NORAD_CAT_ID": 43831,
    "ELEMENT_SET_NO": 999,
    "REV_AT_EPOCH": 35333,
    "BSTAR": 0.00034472,
    "MEAN_MOTION_DOT": 7.978e-05,
    "MEAN_MOTION_DDOT": 0
  },
  {
    "OBJECT_NAME": "SAUDISAT 5B",
    "OBJECT_ID": "2018-102C",
    "EPOCH": "2025-05-04T04:26:18.886848",
    "MEAN_MOTION": 15.23135871,
    "ECCENTRICITY": 0.0012973,
    "INCLINATION": 97.3675,
    "RA_OF_ASC_NODE": 191.131,
    "ARG_OF_PERICENTER": 135.9183,
    "MEAN_ANOMALY": 224.3091,
    "EPHEMERIS_TYPE": 0,
    "CLASSIFICATION_TYPE": "U",
    "NORAD_CAT_ID": 43833,
    "ELEMENT_SET_NO": 999,
    "REV_AT_EPOCH": 35343,
    "BSTAR": 0.00032725,
    "MEAN_MOTION_DOT": 7.675e-05,
    "MEAN_MOTION_DDOT": 0
  },
  {
    "OBJECT_NAME": "GAOFEN-10R",
    "OBJECT_ID": "2019-066A",
    "EPOCH": "2025-05-04T03:56:48.605280",
    "MEAN_MOTION": 14.82550367,
    "ECCENTRICITY": 0.0006745,
    "INCLINATION": 98.002,
    "RA_OF_ASC_NODE": 71.2384,
    "ARG_OF_PERICENTER": 42.867,
    "MEAN_ANOMALY": 317.3068,
    "EPHEMERIS_TYPE": 0,
    "CLASSIFICATION_TYPE": "U",
    "NORAD_CAT_ID": 44622,
    "ELEMENT_SET_NO": 999,
    "REV_AT_EPOCH": 30176,
    "BSTAR": 0.00032286,
    "MEAN_MOTION_DOT": 2.542e-05,
    "MEAN_MOTION_DDOT": 0
  },
  {
    "OBJECT_NAME": "CARTOSAT-3",
    "OBJECT_ID": "2019-081A",
    "EPOCH": "2025-05-04T04:55:54.279840",
    "MEAN_MOTION": 15.19179289,
    "ECCENTRICITY": 0.0015239,
    "INCLINATION": 97.4831,
    "RA_OF_ASC_NODE": 186.1559,
    "ARG_OF_PERICENTER": 139.8301,
    "MEAN_ANOMALY": 220.4063,
    "EPHEMERIS_TYPE": 0,
    "CLASSIFICATION_TYPE": "U",
    "NORAD_CAT_ID": 44804,
    "ELEMENT_SET_NO": 999,
    "REV_AT_EPOCH": 30132,
    "BSTAR": 0.00030439,
    "MEAN_MOTION_DOT": 6.353e-05,
    "MEAN_MOTION_DDOT": 0
  },
  {
    "OBJECT_NAME": "GAOFEN-12 01",
    "OBJECT_ID": "2019-082A",
    "EPOCH": "2025-05-04T04:19:50.692512",
    "MEAN_MOTION": 14.80357918,
    "ECCENTRICITY": 0.0001174,
    "INCLINATION": 97.8151,
    "RA_OF_ASC_NODE": 136.2629,
    "ARG_OF_PERICENTER": 236.9729,
    "MEAN_ANOMALY": 123.1371,
    "EPHEMERIS_TYPE": 0,
    "CLASSIFICATION_TYPE": "U",
    "NORAD_CAT_ID": 44819,
    "ELEMENT_SET_NO": 999,
    "REV_AT_EPOCH": 29357,
    "BSTAR": 0.00011534,
    "MEAN_MOTION_DOT": 8.29e-06,
    "MEAN_MOTION_DDOT": 0
  },
  {
    "OBJECT_NAME": "CSG-1",
    "OBJECT_ID": "2019-092A",
    "EPOCH": "2025-05-04T03:21:48.606624",
    "MEAN_MOTION": 14.82160978,
    "ECCENTRICITY": 0.0001501,
    "INCLINATION": 97.8877,
    "RA_OF_ASC_NODE": 308.6789,
    "ARG_OF_PERICENTER": 84.3498,
    "MEAN_ANOMALY": 275.7887,
    "EPHEMERIS_TYPE": 0,
    "CLASSIFICATION_TYPE": "U",
    "NORAD_CAT_ID": 44873,
    "ELEMENT_SET_NO": 999,
    "REV_AT_EPOCH": 29088,
    "BSTAR": 0.00013429,
    "MEAN_MOTION_DOT": 1.017e-05,
    "MEAN_MOTION_DDOT": 0
  },
  {
    "OBJECT_NAME": "NEMO-HD",
    "OBJECT_ID": "2020-061F",
    "EPOCH": "2025-05-04T04:17:13.221600",
    "MEAN_MOTION": 15.35423982,
    "ECCENTRICITY": 0.0002917,
    "INCLINATION": 97.2469,
    "RA_OF_ASC_NODE": 186.5567,
    "ARG_OF_PERICENTER": 92.5663,
    "MEAN_ANOMALY": 267.5915,
    "EPHEMERIS_TYPE": 0,
    "CLASSIFICATION_TYPE": "U",
    "NORAD_CAT_ID": 46277,
    "ELEMENT_SET_NO": 999,
    "REV_AT_EPOCH": 25904,
    "BSTAR": 0.00034647,
    "MEAN_MOTION_DOT": 0.00011851,
    "MEAN_MOTION_DDOT": 0
  }
]